COSMOS 2433 (720)       
1 32275C 07052A   22020.99979167  .00000000  00000-0  00000-0 0   201
2 32275  66.0829   9.5630 0004974 267.6523 271.5530  2.13104212    10
COSMOS 2432 (719)       
1 32276C 07052B   22020.99979167  .00000000  00000-0  00000-0 0   202
2 32276  66.0962   9.6615 0012063 319.9329 167.9578  2.13103476    17
COSMOS 2434 (721)       
1 32393C 07065A   22020.99979167  .00000001  00000-0  00000-0 0   207
2 32393  64.4109 246.4648 0004777  71.7041 356.5288  2.13103125    11
COSMOS 2436 (723)       
1 32395C 07065C   22020.99979167  .00000001  00000-0  00000-0 0   209
2 32395  64.4197 246.5205 0016591   6.5992 197.5973  2.13103002    16
COSMOS 2456 (730)       
1 36111C 09070A   22020.99979167 -.00000001  00000-0  00000-0 0   208
2 36111  64.3174 126.1189 0003193 308.7142 287.1567  2.13099042    15
COSMOS 2457 (733)       
1 36112C 09070B   22020.99979167 -.00000001  00000-0  00000-0 0   209
2 36112  64.3005 125.9983 0005650 165.9062 196.0863  2.13101317    18
COSMOS 2461 (735)       
1 36401C 10007B   22020.99979167  .00000000  00000-0  00000-0 0   200
2 36401  65.9711   8.4219 0020722 359.4119  37.3612  2.13103704    18
COSMOS 2460 (732)       
1 36402C 10007C   22020.99979167  .00000000  00000-0  00000-0 0   201
2 36402  65.9580   8.3750 0002484 291.5095  52.2818  2.13106354    14
COSMOS 2464 (736)       
1 37139C 10041C   21346.99979167 -.00000007  00000-0  00000-0 0  3466
2 37139  64.0180 246.9668 0029530  10.9316 237.2531  2.13100675    13
COSMOS 2476 (744)       
1 37867C 11064A   22020.99979167 -.00000001  00000-0  00000-0 0   203
2 37867  64.6089 127.4176 0021291 234.6887 265.3991  2.13101810    10
COSMOS 2477 (745)       
1 37868C 11064B   22020.99979167 -.00000001  00000-0  00000-0 0   204
2 37868  64.6167 127.4806 0018590 235.5832  82.7126  2.13101664    14
COSMOS 2475 (743)       
1 37869C 11064C   22020.99979167 -.00000001  00000-0  00000-0 0   205
2 37869  64.6240 127.4874 0022466 254.8201  21.3710  2.13101782    12
COSMOS 2485 (747)       
1 39155C 13019A   22020.99979167 -.00000001  00000-0  00000-0 0   207
2 39155  64.7737 127.8138 0021786 230.6266 313.8975  2.13101689    16
COSMOS 2492 (754)       
1 39620C 14012A   22020.99979167  .00000000  00000-0  00000-0 0   206
2 39620  65.8453   8.0769 0015232 318.1723 260.9527  2.13103276    18
COSMOS 2500 (755)       
1 40001C 14032A   22020.99979167  .00000000  00000-0  00000-0 0   203
2 40001  65.7851   7.9491 0006976 225.4028 212.7696  2.13102419    17
COSMOS 2501 (702)       
1 40315C 14075A   22020.99979167  .00000001  00000-0  00000-0 0   209
2 40315  63.7195 246.3385 0016195 206.7515  38.7126  2.13101370    11
COSMOS 2514 (751)       
1 41330C 16008A   22020.99979167  .00000000  00000-0  00000-0 0   204
2 41330  65.5860   7.6775 0010841 226.5420  35.1921  2.13102826    17
COSMOS 2522 (752)       
1 42939C 17055A   22020.99979167  .00000001  00000-0  00000-0 0   204
2 42939  64.1787 246.9249 0005223 248.8194 131.9265  2.13101963    10
COSMOS 2527 (756)       
1 43508C 18053A   22020.99979167 -.00000001  00000-0  00000-0 0   207
2 43508  64.9371 127.7831 0008125 225.6908 187.1620  2.13102539    11
COSMOS 2529 (757)       
1 43687C 18086A   22020.99979167  .00000001  00000-0  00000-0 0   200
2 43687  64.3934 247.2015 0007780 278.0862  58.1783  2.13101978    10
COSMOS 2534 (758)       
1 44299C 19030A   22020.99979167  .00000001  00000-0  00000-0 0   200
2 44299  64.4649 247.0725 0011140 298.4658 172.4637  2.13101988    13
COSMOS 2544 (759)       
1 44850C 19088A   22020.99979167 -.00000001  00000-0  00000-0 0   207
2 44850  64.9221 127.6385 0011992 256.9334 199.4960  2.13102347    15
COSMOS 2545 (760)       
1 45358C 20018A   21347.99979167  .00000000  00000-0  00000-0 0  3477
2 45358  64.9189   9.7226 0011553 251.4919  62.3759  2.13102827    15
COSMOS 2547 (705)       
1 46805C 20075A   22020.99979167  .00000001  00000-0  00000-0 0   206
2 46805  64.6877 246.4534 0005350 250.4588 267.6596  2.13103036    17
